{
    "CCSDS_OMM_VERS": "3.0",
    "COMMENT": "GENERATED VIA SPACE-TRACK.ORG API",
    "CREATION_DATE": "2025-05-23T06:36:18",
    "ORIGINATOR": "18 SPCS",
    "OBJECT_NAME": "NAVSTAR 83 (USA 440)",
    "OBJECT_ID": "2024-242A",
    "CENTER_NAME": "EARTH",
    "REF_FRAME": "TEME",
    "TIME_SYSTEM": "UTC",
    "MEAN_ELEMENT_THEORY": "SGP4",
    "EPOCH": "2025-05-23T04:30:58.645728",
    "MEAN_MOTION": "2.00557922",
    "ECCENTRICITY": "0.00053160",
    "INCLINATION": "54.9781",
    "RA_OF_ASC_NODE": "349.9762",
    "ARG_OF_PERICENTER": "346.5719",
    "MEAN_ANOMALY": "180.4125",
    "EPHEMERIS_TYPE": "0",
    "CLASSIFICATION_TYPE": "U",
    "NORAD_CAT_ID": "62339",
    "ELEMENT_SET_NO": "999",
    "REV_AT_EPOCH": "342",
    "BSTAR": "0.00000000000000",
    "MEAN_MOTION_DOT": "-0.00000068",
    "MEAN_MOTION_DDOT": "0.0000000000000",
    "SEMIMAJOR_AXIS": "26560.849",
    "PERIOD": "717.997",
    "APOAPSIS": "20196.834",
    "PERIAPSIS": "20168.595",
    "OBJECT_TYPE": "PAYLOAD",
    "RCS_SIZE": "LARGE",
    "COUNTRY_CODE": "US",
    "LAUNCH_DATE": "2024-12-17",
    "SITE": "AFETR",
    "DECAY_DATE": null,
    "FILE": "4736665",
    "GP_ID": "288166661",
    "TLE_LINE0": "0 NAVSTAR 83 (USA 440)",
    "TLE_LINE1": "1 62339U 24242A   25143.18817877 -.00000068  00000-0  00000+0 0  9993",
    "TLE_LINE2": "2 62339  54.9781 349.9762 0005316 346.5719 180.4125  2.00557922  3421"
}